NORAD_CAT_ID,OBJECT_NAME,OBJECT_TYPE,EPOCH,MEAN_MOTION,ECCENTRICITY,INCLINATION,RA_OF_ASC_NODE,ARG_OF_PERICENTER,MEAN_ANOMALY,BSTAR,MEAN_MOTION_DOT,MEAN_MOTION_DDOT,TLE_LINE0,TLE_LINE1,TLE_LINE2,SEMIMAJOR_AXIS,PERIOD,APOGEE,PERIGEE,DECAYED
49733.0,STARLINK-3252,PAYLOAD,2022-03-25 14:00:01,15.08851196,0.0001997,53.2123,166.47400000000005,35.781,118.2363,-0.0016114,-0.00025851,0.0,0 STARLINK-3252,1 49733U 21115K   22084.58334491 -.00025851  00000-0 -16114-2 0  9997,2 49733  53.2123 166.4740 0001997  35.7810 118.2363 15.08851196  3597,6917.846,95.437,541.0930000000002,538.33,0.0
49733.0,STARLINK-3252,PAYLOAD,2022-03-25 22:00:01,15.08853945,0.0001903,53.2124,164.9762,35.5969,130.0793,-0.0041393,-0.00065592,0.0,0 STARLINK-3252,1 49733U 21115K   22084.91668981 -.00065592  00000-0 -41393-2 0  9991,2 49733  53.2124 164.9762 0001903  35.5969 130.0793 15.08853945 18392,6917.8380000000025,95.437,541.019,538.386,0.0
49733.0,STARLINK-3252,PAYLOAD,2022-03-26 06:00:00,15.0881991,0.000192,53.2128,163.4792,41.6227,135.5875,0.00080207,0.00012493,0.0,0 STARLINK-3252,1 49733U 21115K   22085.25001157  .00012493  00000-0  80207-3 0  9993,2 49733  53.2128 163.4792 0001920  41.6227 135.5875 15.08819910 18448,6917.941999999999,95.439,541.135,538.479,0.0
49733.0,STARLINK-3252,PAYLOAD,2022-03-26 14:00:01,15.08805008,0.0002136,53.2128,161.9846,36.8768,151.907,0.0021759,0.00034479,0.0,0 STARLINK-3252,1 49733U 21115K   22085.58334491  .00034479  00000-0  21759-2 0  9993,2 49733  53.2128 161.9846 0002136  36.8768 151.9070 15.08805008  3566,6917.986999999999,95.44,541.33,538.375,0.0
49733.0,STARLINK-3252,PAYLOAD,2022-03-26 22:00:00,15.08839068,0.0002012,53.213,160.4868,37.9802,162.3708,-0.00096073,-0.00015546,0.0,0 STARLINK-3252,1 49733U 21115K   22085.91667824 -.00015546  00000-0 -96073-3 0  9997,2 49733  53.2130 160.4868 0002012  37.9802 162.3708 15.08839068  3591,6917.8830000000025,95.438,541.14,538.356,0.0
49733.0,STARLINK-3252,PAYLOAD,2022-03-27 14:00:01,15.08829873,0.0002212,53.2136,157.4953,36.833,186.7121,0.0025594,0.0004067,0.0,0 STARLINK-3252,1 49733U 21115K   22086.58334491  .00040670  00000-0  25594-2 0  9995,2 49733  53.2136 157.4953 0002212  36.8330 186.7121 15.08829873 18648,6917.911,95.438,541.307,538.246,0.0
49733.0,STARLINK-3252,PAYLOAD,2022-03-27 22:00:01,15.08873328,0.0002009,53.2136,155.9973,37.1989,198.0153,-0.0035093,-0.00055759,0.0,0 STARLINK-3252,1 49733U 21115K   22086.91668981 -.00055759  00000-0 -35093-2 0  9997,2 49733  53.2136 155.9973 0002009  37.1989 198.0153 15.08873328  3606,6917.779,95.435,541.033,538.254,0.0
49733.0,STARLINK-3252,PAYLOAD,2022-03-28 06:00:00,15.0886545,0.0001922,53.2139,154.5008,38.7347,208.025,-0.0020223,-0.00032352,0.0,0 STARLINK-3252,1 49733U 21115K   22087.25001157 -.00032352  00000-0 -20223-2 0  9994,2 49733  53.2139 154.5008 0001922  38.7347 208.0250 15.08865450 18749,6917.803000000001,95.436,540.997,538.3380000000002,0.0
49733.0,STARLINK-3252,PAYLOAD,2022-03-28 14:00:01,15.08811012,0.000214,53.2138,153.0059,33.2554,225.1918,0.0031117,0.00049544,0.0,0 STARLINK-3252,1 49733U 21115K   22087.58335648  .00049544  00000-0  31117-2 0  9998,2 49733  53.2138 153.0059 0002140  33.2554 225.1918 15.08811012  3594,6917.969,95.439,541.314,538.354,0.0
49733.0,STARLINK-3252,PAYLOAD,2022-03-28 22:00:00,15.08850566,0.0001965,53.2138,151.5079,35.9375,234.0293,-0.0029174,-0.00046434,0.0,0 STARLINK-3252,1 49733U 21115K   22087.91667824 -.00046434  00000-0 -29174-2 0  9996,2 49733  53.2138 151.5079 0001965  35.9375 234.0293 15.08850566  3562,6917.848000000001,95.437,541.072,538.354,0.0
49733.0,STARLINK-3252,PAYLOAD,2022-03-29 06:00:02,15.08833777,0.0001969,53.2139,150.0117,40.1728,241.4393,-0.00030811,-5.188e-05,0.0,0 STARLINK-3252,1 49733U 21115K   22088.25002315 -.00005188  00000-0 -30811-3 0  9994,2 49733  53.2139 150.0117 0001969  40.1728 241.4393 15.08833777 18894,6917.899,95.438,541.127,538.4019999999998,0.0
49733.0,STARLINK-3252,PAYLOAD,2022-03-29 14:00:01,15.08821993,0.0002153,53.2135,148.5168,35.195,257.9452,0.00017489,2.495e-05,0.0,0 STARLINK-3252,1 49733U 21115K   22088.58334491  .00002495  00000-0  17489-3 0  9995,2 49733  53.2135 148.5168 0002153  35.1950 257.9452 15.08821993  3568,6917.935,95.439,541.29,538.311,0.0
49733.0,STARLINK-3252,PAYLOAD,2022-03-29 22:00:00,15.08810338,0.0001942,53.2134,147.0187,36.2161,268.5033,0.00069467,0.00010776,0.0,0 STARLINK-3252,1 49733U 21115K   22088.91667824  .00010776  00000-0  69467-3 0  9995,2 49733  53.2134 147.0187 0001942  36.2161 268.5033 15.08810338  3567,6917.971,95.439,541.18,538.493,0.0
49733.0,STARLINK-3252,PAYLOAD,2022-03-30 12:00:00,15.08817252,0.0002142,53.213,144.4016,35.9542,199.0155,0.0014936,0.00023548,0.0,0 STARLINK-3252,1 49733U 21115K   22089.50001157  .00023548  00000-0  14936-2 0  9993,2 49733  53.2130 144.4016 0002142  35.9542 199.0155 15.08817252 19086,6917.95,95.439,541.297,538.3330000000002,0.0
49733.0,STARLINK-3252,PAYLOAD,2022-03-30 14:00:01,15.08808866,0.0002148,53.2128,144.0275,35.206,292.7241,0.0031676,0.00050443,0.0,0 STARLINK-3252,1 49733U 21115K   22089.58335648  .00050443  00000-0  31676-2 0  9990,2 49733  53.2128 144.0275 0002148  35.2060 292.7241 15.08808866  3564,6917.976,95.44,541.327,538.355,0.0
49733.0,STARLINK-3252,PAYLOAD,2022-03-30 22:00:00,15.08830527,0.000199,53.2126,142.5294,38.6362,300.8155,0.0011521,0.00018091,0.0,0 STARLINK-3252,1 49733U 21115K   22089.91667824  .00018091  00000-0  11521-2 0  9991,2 49733  53.2126 142.5294 0001990  38.6362 300.8155 15.08830527  3612,6917.909000000002,95.438,541.151,538.398,0.0
49733.0,STARLINK-3252,PAYLOAD,2022-03-31 14:00:01,15.08812211,0.0002285,53.2121,139.53799999999998,39.0662,323.5863,0.0036258,0.00057848,0.0,0 STARLINK-3252,1 49733U 21115K   22090.58334491  .00057848  00000-0  36258-2 0  9994,2 49733  53.2121 139.5380 0002285  39.0662 323.5863 15.08812211 19249,6917.965,95.439,541.411,538.25,0.0
49733.0,STARLINK-3252,PAYLOAD,2022-03-31 22:00:00,15.08835765,0.0002065,53.212,138.0396,41.1635,333.0842,-0.00044322,-7.335e-05,0.0,0 STARLINK-3252,1 49733U 21115K   22090.91667824 -.00007335  00000-0 -44322-3 0  9990,2 49733  53.2120 138.0396 0002065  41.1635 333.0842 15.08835765  3570,6917.893,95.438,541.187,538.33,0.0
49733.0,STARLINK-3252,PAYLOAD,2022-04-01 06:00:00,15.08850131,0.0002116,53.212,136.5436,41.2943,344.5356,-0.00080818,-0.00013131,0.0,0 STARLINK-3252,1 49733U 21115K   22091.25001157 -.00013131  00000-0 -80818-3 0  9990,2 49733  53.2120 136.5436 0002116  41.2943 344.5356 15.08850131 19341,6917.849,95.437,541.178,538.251,0.0
49733.0,STARLINK-3252,PAYLOAD,2022-04-01 14:00:01,15.088304199999998,0.0002256,53.2117,135.0482,35.8988,1.5297,0.00022147,3.237e-05,0.0,0 STARLINK-3252,1 49733U 21115K   22091.58334491  .00003237  00000-0  22147-3 0  9991,2 49733  53.2117 135.0482 0002256  35.8988   1.5297 15.08830420  3611,6917.91,95.438,541.335,538.214,0.0
49733.0,STARLINK-3252,PAYLOAD,2022-04-01 22:00:00,15.08812211,0.0002053,53.2117,133.5497,38.4191,10.6119,0.0026907,0.00042763,0.0,0 STARLINK-3252,1 49733U 21115K   22091.91667824  .00042763  00000-0  26907-2 0  9991,2 49733  53.2117 133.5497 0002053  38.4191  10.6119 15.08812211  3588,6917.965,95.439,541.251,538.41,0.0
49733.0,STARLINK-3252,PAYLOAD,2022-04-02 06:00:00,15.08860341,0.0002172,53.2117,132.0538,39.5487,21.058000000000003,-0.00085725,-0.00013914,0.0,0 STARLINK-3252,1 49733U 21115K   22092.25001157 -.00013914  00000-0 -85725-3 0  9992,2 49733  53.2117 132.0538 0002172  39.5487  21.0580 15.08860341 19492,6917.818,95.436,541.186,538.181,0.0
49733.0,STARLINK-3252,PAYLOAD,2022-04-02 22:00:01,15.08803817,0.0002015,53.212,129.0596,35.0021,48.8938,0.0013938,0.00021942,0.0,0 STARLINK-3252,1 49733U 21115K   22092.91668981  .00021942  00000-0  13938-2 0  9993,2 49733  53.2120 129.0596 0002015  35.0021  48.8938 15.08803817  3578,6917.991,95.44,541.25,538.462,0.0
49733.0,STARLINK-3252,PAYLOAD,2022-04-03 14:00:01,15.08822792,0.0002286,53.212,126.0683,31.5249,75.4454,0.00085115,0.00013278,0.0,0 STARLINK-3252,1 49733U 21115K   22093.58334491  .00013278  00000-0  85115-3 0  9993,2 49733  53.2120 126.0683 0002286  31.5249  75.4454 15.08822792 19697,6917.933000000001,95.439,541.379,538.217,0.0
49733.0,STARLINK-3252,PAYLOAD,2022-04-03 22:00:00,15.08794299,0.0002031,53.2122,124.5699,33.6478,84.912,0.0023451,0.00037185,0.0,0 STARLINK-3252,1 49733U 21115K   22093.91667824  .00037185  00000-0  23451-2 0  9996,2 49733  53.2122 124.5699 0002031  33.6478  84.9120 15.08794299  3591,6918.02,95.44,541.29,538.48,0.0
49733.0,STARLINK-3252,PAYLOAD,2022-04-04 06:00:02,15.08832099,0.0002161,53.2125,123.0742,34.5224,95.6508,-0.0013821,-0.00022213,0.0,0 STARLINK-3252,1 49733U 21115K   22094.25002315 -.00022213  00000-0 -13821-2 0  9990,2 49733  53.2125 123.0742 0002161  34.5224  95.6508 15.08832099 19799,6917.905,95.438,541.264,538.275,0.0
49733.0,STARLINK-3252,PAYLOAD,2022-04-04 14:00:01,15.08814406,0.0002311,53.2123,121.5785,31.5001,110.1873,0.0020611,0.00032644,0.0,0 STARLINK-3252,1 49733U 21115K   22094.58334491  .00032644  00000-0  20611-2 0  9991,2 49733  53.2123 121.5785 0002311  31.5001 110.1873 15.08814406  3618,6917.959,95.439,541.422,538.225,0.0
49733.0,STARLINK-3252,PAYLOAD,2022-04-04 22:00:00,15.08815071,0.0002082,53.2125,120.0803,35.3811,117.8979,0.003024,0.00048136,0.0,0 STARLINK-3252,1 49733U 21115K   22094.91667824  .00048136  00000-0  30240-2 0  9999,2 49733  53.2125 120.0803 0002082  35.3811 117.8979 15.08815071 19900,6917.956999999999,95.439,541.262,538.381,0.0
49733.0,STARLINK-3252,PAYLOAD,2022-04-05 14:00:01,15.08853933,0.0002303,53.2125,117.0887,32.7418,143.7844,-0.00082918,-0.00013466,0.0,0 STARLINK-3252,1 49733U 21115K   22095.58335648 -.00013466  00000-0 -82918-3 0  9999,2 49733  53.2125 117.0887 0002303  32.7418 143.7844 15.08853933  3561,6917.8380000000025,95.437,541.2959999999998,538.11,0.0
